COSMOS 2550             
1 48865U 21056A   25318.75195391  .00000519  00000+0  21570-4 0  9997
2 48865  67.1442  28.5905 0008347 271.4822  88.5376 15.33890068245836
CZ-2C R/B               
1 52794U 22058K   25320.33401612  .00035824  00000+0  67754-3 0  9999
2 52794  50.1905 178.0278 0048378  88.9854 271.6656 15.46719714192543
GSLV R/B                
1 54149U 22138AN  25320.43468741  .00004727  00000+0  41812-3 0  9996
2 54149  87.3856 204.2784 0020599 196.6418 163.4139 14.95941758166990
XRISM                   
1 57800U 23137A   25319.66872219  .00008826  00000+0  52450-3 0  9999
2 57800  31.0032 300.2775 0007933 329.7279  30.2900 15.09958523120538
ACS3                    
1 59588U 24077B   25319.51003128  .00034038  00000+0  30195-1 0  9991
2 59588  97.3054 281.1675 0058749  23.0378 337.3397 13.83853629 78379
